     2.100          NAVIGATION                              RINEX VERSION / TYPE
fic2rin                                 12/21/2010 00:18:49 PGM / RUN BY / DATE
                                                            END OF HEADER
29 10 12 20  4  0  0.0  .171833671629D-03  .284217094304D-11  .000000000000D+00
     .450000000000D+02  .148437500000D+02  .482627246219D-08  .125317895102D+01
     .642612576485D-06  .251531752292D-02  .684894621372D-05  .515359994507D+04
     .100800000000D+06  .223517417908D-07  .879546708239D+00 -.428408384323D-07
     .960925340226D+00  .247875000000D+03 -.125658826258D+01 -.800426198107D-08
     .443589905872D-09  .100000000000D+01  .161500000000D+04  .000000000000D+00
     .240000000000D+01  .000000000000D+00 -.838190317154D-08  .450000000000D+02
     .936060000000D+05  .400000000000D+01
30 10 12 20  4  0  0.0  .306341797113D-03  .329691829393D-11  .000000000000D+00
     .760000000000D+02 -.111531250000D+03  .424803409053D-08 -.145617133076D+01
    -.566057860851D-05  .130288607907D-01  .114981085062D-04  .515535810661D+04
     .100800000000D+06 -.782310962677D-07 -.245540388017D+00  .368803739548D-06
     .959060600975D+00  .154343750000D+03  .155456118526D+01 -.777603818892D-08
     .125005206969D-09  .100000000000D+01  .161500000000D+04  .000000000000D+00
     .485000000000D+01  .000000000000D+00 -.791624188423D-08  .760000000000D+02
     .936060000000D+05  .400000000000D+01
31 10 12 20  4  0  0.0  .205389223993D-04  .397903932026D-11  .000000000000D+00
     .950000000000D+02 -.121593750000D+03  .429196449183D-08  .190014657621D+01
    -.622309744358D-05  .781193398871D-02  .139698386192D-05  .515356048203D+04
     .100800000000D+06  .119209289551D-06 -.124270345255D+01  .130385160446D-07
     .978444196768D+00  .358312500000D+03 -.103420413128D+01 -.813712465819D-08
    -.365729519817D-09  .100000000000D+01  .161500000000D+04  .000000000000D+00
     .240000000000D+01  .000000000000D+00 -.130385160446D-07  .950000000000D+02
     .936060000000D+05  .400000000000D+01
32 10 12 20  4  0  0.0 -.156987924129D-03 -.818545231596D-11  .000000000000D+00
     .150000000000D+02  .115218750000D+03  .406409785742D-08  .271609175208D+01
     .585988163948D-05  .124439807842D-01  .117570161819D-04  .515379308701D+04
     .100800000000D+06  .104308128357D-06  .302544872873D+01  .176951289177D-06
     .957130478063D+00  .145062500000D+03 -.857737649862D+00 -.756888670308D-08
    -.252153360342D-09  .100000000000D+01  .161500000000D+04  .000000000000D+00
     .240000000000D+01  .000000000000D+00 -.372529029846D-08  .150000000000D+02
     .936060000000D+05  .400000000000D+01
24 10 12 20  3 59 44.0  .349286478013D-03  .341060513165D-11  .000000000000D+00
     .100000000000D+01 -.150937500000D+02  .496592113626D-08  .297882730114D+01
    -.745058059692D-06  .584200117737D-02  .687874853611D-05  .515472530174D+04
     .100784000000D+06 -.596046447754D-07  .194479932714D+01  .316649675369D-07
     .948234262563D+00  .238718750000D+03 -.281029946757D+00 -.804319217410D-08
    -.528593446610D-09  .100000000000D+01  .161500000000D+04  .000000000000D+00
     .240000000000D+01  .000000000000D+00 -.139698386192D-08  .100000000000D+01
     .953460000000D+05  .400000000000D+01
19 10 12 20  3 59 44.0 -.936593860388D-04 -.352429196937D-11  .000000000000D+00
     .110000000000D+02  .156562500000D+02  .481805783431D-08 -.226204527533D+01
     .825151801109D-06  .682643149048D-02  .682100653648D-05  .515359243965D+04
     .100784000000D+06 -.689178705215D-07  .925693338455D+00 -.745058059692D-07
     .958047315156D+00  .248343750000D+03 -.179571526503D-01 -.797533220460D-08
     .504306720685D-09  .100000000000D+01  .161500000000D+04  .000000000000D+00
     .240000000000D+01  .000000000000D+00 -.149011611938D-07  .110000000000D+02
     .972360000000D+05  .400000000000D+01
30 10 12 20  3 59 44.0  .306342262775D-03  .329691829393D-11  .000000000000D+00
     .100000000000D+02 -.111531250000D+03  .424839124826D-08 -.145850187483D+01
    -.566057860851D-05  .130288519431D-01  .114981085062D-04  .515535811996D+04
     .100784000000D+06 -.782310962677D-07 -.245540263669D+00  .368803739548D-06
     .959060596586D+00  .154343750000D+03  .155456019925D+01 -.777603818892D-08
     .125005206969D-09  .100000000000D+01  .161500000000D+04  .000000000000D+00
     .240000000000D+01  .000000000000D+00 -.791624188423D-08  .100000000000D+02
     .984360000000D+05  .400000000000D+01
 8 10 12 20  3 59 44.0  .708922743797D-05  .000000000000D+00  .000000000000D+00
     .700000000000D+01 -.108406250000D+03  .392837791842D-08  .132592526769D+01
    -.549107789993D-05  .114659209503D-01  .274367630482D-05  .515363798904D+04
     .100784000000D+06  .502914190292D-07 -.117101017650D+01  .931322574615D-07
     .994831151168D+00  .344093750000D+03 -.309740428259D+01 -.799247577584D-08
    -.400730977768D-09  .100000000000D+01  .161500000000D+04  .000000000000D+00
     .240000000000D+01  .000000000000D+00 -.419095158577D-08  .700000000000D+01
     .997560000000D+05  .400000000000D+01
 8 10 12 20  5 59 44.0  .708969309926D-05  .000000000000D+00  .000000000000D+00
     .800000000000D+01 -.115750000000D+03  .394230707006D-08  .237615078330D+01
    -.592321157455D-05  .114652998745D-01  .262819230556D-05  .515363778496D+04
     .107984000000D+06 -.154599547386D-06 -.117106833334D+01  .130385160446D-06
     .994828934847D+00  .351250000000D+03 -.309742974322D+01 -.790997233924D-08
    -.254296306748D-09  .100000000000D+01  .161500000000D+04  .000000000000D+00
     .240000000000D+01  .000000000000D+00 -.419095158577D-08  .800000000000D+01
     .100806000000D+06  .400000000000D+01
19 10 12 20  5 59 44.0 -.936845317483D-04 -.352429196937D-11  .000000000000D+00
     .140000000000D+02  .135625000000D+02  .483663003648D-08 -.121186504435D+01
     .713393092155D-06  .682657433208D-02  .669434666634D-05  .515359171867D+04
     .107984000000D+06 -.186264514923D-08  .925635850163D+00 -.130385160446D-06
     .958050985618D+00  .250375000000D+03 -.179042666989D-01 -.799747598412D-08
     .491449042254D-09  .100000000000D+01  .161500000000D+04  .000000000000D+00
     .240000000000D+01  .000000000000D+00 -.149011611938D-07  .140000000000D+02
     .100806000000D+06  .400000000000D+01
24 10 12 20  5 59 44.0  .349310692400D-03  .341060513165D-11  .000000000000D+00
     .200000000000D+01 -.138750000000D+02  .496163524345D-08 -.225481442091D+01
    -.691041350365D-06  .584225577768D-02  .710040330887D-05  .515472485733D+04
     .107984000000D+06 -.838190317154D-07  .194474127124D+01 -.242143869400D-07
     .948230344869D+00  .236875000000D+03 -.281031741757D+00 -.807783647431D-08
    -.515378610445D-09  .100000000000D+01  .161500000000D+04  .000000000000D+00
     .240000000000D+01  .000000000000D+00 -.139698386192D-08  .200000000000D+01
     .100806000000D+06  .400000000000D+01
30 10 12 20  5 59 44.0  .306366011500D-03  .329691829393D-11  .000000000000D+00
     .110000000000D+02 -.102906250000D+03  .433053752713D-08 -.409264500401D+00
    -.530481338501D-05  .130295543931D-01  .113770365715D-04  .515536065865D+04
     .107984000000D+06 -.156462192535D-06 -.245598307870D+00  .633299350739D-07
     .959060890633D+00  .159093750000D+03  .155447271236D+01 -.804247785863D-08
     .236081262304D-09  .100000000000D+01  .161500000000D+04  .000000000000D+00
     .240000000000D+01  .000000000000D+00 -.791624188423D-08  .110000000000D+02
     .100806000000D+06  .400000000000D+01
 1 10 12 20  6  0  0.0 -.192828010768D-03 -.341060513165D-11  .000000000000D+00
     .270000000000D+02 -.104937500000D+03  .411017120513D-08 -.466456125541D-01
    -.537000596523D-05  .440867687576D-02  .113081187010D-04  .515354809570D+04
     .108000000000D+06 -.353902578354D-07 -.204633130146D+00  .335276126862D-07
     .967563746479D+00  .162312500000D+03  .921680684363D+00 -.776710924556D-08
     .193936649668D-09  .100000000000D+01  .161500000000D+04  .000000000000D+00
     .240000000000D+01  .630000000000D+02 -.190921127796D-07  .270000000000D+02
     .100806000000D+06  .400000000000D+01
 3 10 12 20  6  0  0.0  .651047099382D-03  .522959453519D-11  .000000000000D+00
     .910000000000D+02  .171562500000D+02  .535700885521D-08 -.170356828617D+01
     .964850187302D-06  .138708035229D-01  .749342143536D-05  .515362351608D+04
     .108000000000D+06  .333413481712D-06  .719709959792D+00  .111758708954D-07
     .927988254619D+00  .215218750000D+03  .106529530247D+01 -.812283834882D-08
     .582167106740D-09  .100000000000D+01  .161500000000D+04  .000000000000D+00
     .340000000000D+01  .000000000000D+00 -.465661287308D-08  .910000000000D+02
     .100806000000D+06  .400000000000D+01
 4 10 12 20  6  0  0.0  .249477569014D-03  .989075488178D-11  .000000000000D+00
     .820000000000D+02 -.209062500000D+02  .532629329007D-08  .131807762066D+01
    -.918284058571D-06  .962729728781D-02  .667013227940D-05  .515355040741D+04
     .108000000000D+06 -.130385160446D-06  .189320342802D+01  .149011611938D-07
     .937998128210D+00  .244656250000D+03  .692287813480D+00 -.835820529566D-08
    -.619668668830D-09  .100000000000D+01  .161500000000D+04  .000000000000D+00
     .240000000000D+01  .000000000000D+00 -.605359673500D-08  .820000000000D+02
     .100806000000D+06  .400000000000D+01
 5 10 12 20  6  0  0.0 -.856886617839D-04 -.602540239925D-11  .000000000000D+00
     .610000000000D+02  .805937500000D+02  .422339020687D-08  .584005821044D-01
     .428035855293D-05  .216089421883D-02  .109467655420D-04  .515358874321D+04
     .108000000000D+06  .540167093277D-07  .293643452018D+01  .186264514923D-08
     .956306504084D+00  .164156250000D+03  .231815518813D+00 -.779282460242D-08
    -.240724312848D-09  .100000000000D+01  .161500000000D+04  .000000000000D+00
     .340000000000D+01  .000000000000D+00 -.977888703346D-08  .610000000000D+02
     .100806000000D+06  .400000000000D+01
